[{"OBJECT_NAME":"STARLINK-35461","OBJECT_ID":"2025-236C","EPOCH":"2026-03-09T08:05:49.974144","MEAN_MOTION":15.30221657,"ECCENTRICITY":0.00010049,"INCLINATION":53.1584,"RA_OF_ASC_NODE":105.2978,"ARG_OF_PERICENTER":134.7805,"MEAN_ANOMALY":225.3277,"EPHEMERIS_TYPE":0,"CLASSIFICATION_TYPE":"U","NORAD_CAT_ID":66088,"ELEMENT_SET_NO":999,"REV_AT_EPOCH":2283,"BSTAR":0.0009985486,"MEAN_MOTION_DOT":0.00029352,"MEAN_MOTION_DDOT":0},{"OBJECT_NAME":"CZ-4B DEB","OBJECT_ID":"2006-015E","EPOCH":"2026-03-09T20:34:53.082912","MEAN_MOTION":15.19885806,"ECCENTRICITY":0.00461993,"INCLINATION":98.0565,"RA_OF_ASC_NODE":201.7753,"ARG_OF_PERICENTER":62.4887,"MEAN_ANOMALY":298.1031,"EPHEMERIS_TYPE":0,"CLASSIFICATION_TYPE":"U","NORAD_CAT_ID":29538,"ELEMENT_SET_NO":999,"REV_AT_EPOCH":5389,"BSTAR":0.0022587151,"MEAN_MOTION_DOT":0.00050103,"MEAN_MOTION_DDOT":0}]
